GLOBAL-2                
1 43812U 18099BG  26068.69955396  .00003970  00000+0  26145-3 0  9998
2 43812  97.3697 109.3280 0007454 127.1924 232.9986 15.08046936396919
STARLINK-4291           
1 52988U 22076C   26068.50907067  .00000486  00000+0  48661-4 0  9991
2 52988  53.2165  94.9284 0001419  87.4333 272.6821 15.08832472202816
